0 THOR ABLESTAR DEB
1 00325U 61015DB  13281.68135986  .00000785  00000-0  42884-3 0  1603
2 00325 066.9185 019.7809 0067236 285.8984 073.4706 14.16048624676157
0 THOR ABLESTAR DEB
1 00325U 61015DB  13283.09394774  .00000788  00000-0  43006-3 0  1613
2 00325 066.9187 016.2012 0067363 284.9478 074.4163 14.16051414676357
0 THOR ABLESTAR DEB
1 00325U 61015DB  13284.43590379  .00000861  00000-0  46595-3 0  1620
2 00325 066.9189 012.8007 0067468 284.0558 075.3041 14.16053700676547
0 THOR ABLESTAR DEB
1 00325U 61015DB  13285.70722859  .00000849  00000-0  46033-3 0  1635
2 00325 066.9189 009.5791 0067579 283.1959 076.1600 14.16055135676722
0 THOR ABLESTAR DEB
1 00325U 61015DB  13287.40232575  .00000922  00000-0  49601-3 0  1642
2 00325 066.9190 005.2837 0067703 282.0824 077.2688 14.16058433676964
0 THOR ABLESTAR DEB
1 00325U 61015DB  13288.60301682  .00001057  00000-0  56284-3 0  1657
2 00325 066.9189 002.2409 0067783 281.2954 078.0527 14.16061743677136
0 THOR ABLESTAR DEB
1 00325U 61015DB  13290.08622045  .00000964  00000-0  51701-3 0  1667
2 00325 066.9187 358.4821 0067886 280.3090 079.0354 14.16065877677347
0 THOR ABLESTAR DEB
1 00325U 61015DB  13291.35753447  .00000940  00000-0  50509-3 0  1679
2 00325 066.9187 355.2604 0067958 279.4581 079.8835 14.16068656677525
0 THOR ABLESTAR DEB
1 00325U 61015DB  13292.55821737  .00001019  00000-0  54388-3 0  1688
2 00325 066.9186 352.2175 0068016 278.6688 080.6704 14.16071153677698
0 THOR ABLESTAR DEB
1 00325U 61015DB  13293.61764183  .00001007  00000-0  53813-3 0  1697
2 00325 066.9187 349.5327 0068063 277.9656 081.3717 14.16073710677846
0 THOR ABLESTAR DEB
1 00325U 61015DB  13295.45397354  .00000966  00000-0  51761-3 0  1708
2 00325 066.9187 344.8790 0068155 276.7572 082.5768 14.16078487678109
